OBJECT_NAME,OBJECT_ID,EPOCH,MEAN_MOTION,ECCENTRICITY,INCLINATION,RA_OF_ASC_NODE,ARG_OF_PERICENTER,MEAN_ANOMALY,EPHEMERIS_TYPE,CLASSIFICATION_TYPE,NORAD_CAT_ID,ELEMENT_SET_NO,REV_AT_EPOCH,BSTAR,MEAN_MOTION_DOT,MEAN_MOTION_DDOT
OSCAR 7 (AO-7),1974-089B,2026-06-19T11:29:36.361248,12.53698153,.0012599,101.9899,183.7495,125.8414,33.8516,0,U,7530,999,36080,-.1445702E-5,-.47E-6,0
PHASE 3B (AO-10),1983-058B,2026-06-19T07:29:00.728736,2.05869727,.60101018,25.9140,219.2125,116.2527,316.1180,0,U,14129,999,29553,0,.155E-5,0
UOSAT 2 (UO-11),1984-021B,2026-06-19T18:31:35.814720,14.90788570,.00078785,97.8058,136.3177,164.0988,196.0479,0,U,14781,999,25751,.10836502E-3,.101E-4,0
LUSAT (LO-19),1990-005G,2026-06-19T14:58:22.208160,14.34123793,.00112448,98.8849,192.4967,193.7299,166.3580,0,U,20442,999,90274,.40883693E-4,.68E-6,0
EYESAT A (AO-27),1993-061C,2026-06-19T17:26:44.635200,14.30942876,.00095446,98.6880,238.1396,93.2451,266.9824,0,U,22825,999,70736,.43199649E-4,.69E-6,0
ITAMSAT (IO-26),1993-061D,2026-06-19T16:56:00.411648,14.31369842,.00100159,98.6829,238.0360,78.3690,281.8617,0,U,22826,999,70767,.42305232E-4,.68E-6,0
RADIO ROSTO (RS15),1994-085A,2026-06-19T22:53:48.357024,11.27583495,.01560254,64.8186,298.7412,3.3633,356.8304,0,U,23439,999,29621,.34179807E-3,-.3E-6,0
JAS-2 (FO-29),1996-046B,2026-06-19T07:22:34.593312,13.53274520,.0350921,98.5238,18.8890,90.9460,273.1898,0,U,24278,999,47345,.19675932E-4,-.13E-6,0
TECHSAT 1B (GO-32),1998-043D,2026-06-19T14:14:07.076544,14.24428772,.0001179,99.0068,163.4125,158.0468,202.0760,0,U,25397,999,45167,.32334137E-4,.28E-6,0
ISS (ZARYA),1998-067A,2026-06-19T20:01:06.425760,15.49322400,.0004571,51.6328,286.9925,206.3215,153.7542,0,U,25544,999,57216,.16558772E-3,.8787E-4,0
PCSAT (NO-44),2001-043C,2026-06-19T21:11:55.730688,14.31956919,.00060676,67.0502,237.2987,264.7337,95.3072,0,U,26931,999,29083,.53223939E-4,.6E-6,0
SAUDISAT 1C (SO-50),2002-058C,2026-06-19T20:27:43.384608,14.83051819,.00751619,64.5513,120.7383,261.9782,97.2791,0,U,27607,999,26485,.10488845E-3,.74E-5,0
CUTE-1 (CO-55),2003-031E,2026-06-19T13:35:11.395968,14.24336935,.00096891,98.6736,179.0951,171.1603,188.9749,0,U,27844,999,19201,.10623568E-3,.202E-5,0
CUBESAT XI-IV (CO-57),2003-031J,2026-06-19T23:27:32.070528,14.23622052,.00092194,98.6765,179.2116,188.6492,171.4529,0,U,27848,999,19177,.9310277E-4,.169E-5,0
MOZHAETS 4 (RS22),2003-042A,2026-06-19T22:43:59.731968,14.73470830,.00099224,98.3468,355.3836,259.8774,260.9585,0,U,27939,999,21595,.10039274E-3,.598E-5,0
CUBESAT XI-V,2005-043F,2026-06-19T08:57:11.428416,14.72636457,.00137979,98.2987,326.0406,193.6141,166.4695,0,U,28895,999,10207,.17676343E-3,.1074E-4,0
CUTE-1.7+APD II (CO-65),2008-021C,2026-06-19T21:36:33.397056,15.09473052,.00094937,97.8277,152.3753,30.2474,329.9300,0,U,32785,999,98560,.30099107E-3,.4758E-4,0
SEEDS II (CO-66),2008-021J,2026-06-19T13:13:28.513344,15.32817335,.00007441,97.7522,168.5617,349.7207,10.4018,0,U,32791,999,98765,.46962589E-3,.14814E-3,0
YUBILEINY (RS30),2008-025A,2026-06-19T21:57:52.778016,12.43179203,.00187435,82.5040,353.7424,307.6665,52.2714,0,U,32953,999,82003,-.51265304E-3,-.62E-6,0
KKS-1 (KISEKI),2009-002H,2026-06-19T21:18:23.701248,14.83129807,.00064342,98.1188,93.3729,285.3358,74.7144,0,U,33499,999,93659,.1301309E-3,.1005E-4,0
SWISSCUBE,2009-051B,2026-06-19T16:48:08.859456,14.62485509,.00061347,98.4033,78.6322,194.3289,165.7739,0,U,35932,999,88952,.14927361E-3,.707E-5,0
BEESAT-1,2009-051C,2026-06-19T17:03:37.003680,14.61723870,.00043714,98.3961,78.2733,207.4388,152.6582,0,U,35933,999,88955,.13076923E-3,.603E-5,0
ITUPSAT1,2009-051E,2026-06-19T16:53:40.798752,14.60443828,.00063761,98.4046,77.4556,224.8992,135.1693,0,U,35935,999,88910,.12314764E-3,.548E-5,0
XIWANG-1 (HOPE-1),2009-072B,2026-06-19T21:41:32.626176,13.16440978,.00069167,100.4033,124.6932,224.6028,135.4529,0,U,36122,999,79336,.87698787E-3,.29E-5,0
O/OREOS (USA 219),2010-062C,2026-06-19T17:47:01.670784,14.93753061,.00126412,71.9701,74.5547,57.6835,302.5558,0,U,37224,999,11702,.16045838E-3,.164E-4,0
JUGNU,2011-058B,2026-06-19T09:50:01.708800,14.13777315,.00186232,19.9617,294.9273,100.5982,300.1635,0,U,37839,999,75934,.66042981E-4,.394E-5,0
SRMSAT,2011-058D,2026-06-19T08:38:13.672608,14.11575972,.00117441,19.9728,46.3158,227.6220,288.1945,0,U,37841,999,75812,.48474163E-4,.354E-5,0
STRAND-1,2013-009E,2026-06-19T10:09:20.022624,14.37164306,.00078423,98.3923,350.6024,217.8573,142.2063,0,U,39090,999,69738,.7937905E-4,.193E-5,0
ZACUBE-1 (TSHEPISOSAT),2013-066B,2026-06-19T22:33:52.000416,15.01201080,.00411525,97.8072,133.2914,238.1921,121.5293,0,U,39417,999,68114,.18524965E-3,.2355E-4,0
GOMX-1,2013-066Q,2026-06-19T23:28:00.198912,14.69468821,.01301081,97.6476,11.2640,68.7094,292.7947,0,U,39430,999,67032,.22564047E-3,.1472E-4,0
